{
    "links": {
        "self": "http://www.neowsapp.com/rest/v1/neo/3843684?api_key=iIulBulltgU6a56xZRHN4H3l9WmuAYTsLGpBGhQ2"
    },
    "id": "3843684",
    "neo_reference_id": "3843684",
    "name": "(2019 QX5)",
    "designation": "2019 QX5",
    "nasa_jpl_url": "http://ssd.jpl.nasa.gov/sbdb.cgi?sstr=3843684",
    "absolute_magnitude_h": 23.6,
    "estimated_diameter": {
        "kilometers": {
            "estimated_diameter_min": 0.0506471459,
            "estimated_diameter_max": 0.1132504611
        },
        "meters": {
            "estimated_diameter_min": 50.6471458835,
            "estimated_diameter_max": 113.2504610618
        },
        "miles": {
            "estimated_diameter_min": 0.0314706677,
            "estimated_diameter_max": 0.0703705522
        },
        "feet": {
            "estimated_diameter_min": 166.1651821003,
            "estimated_diameter_max": 371.5566426699
        }
    },
    "is_potentially_hazardous_asteroid": false,
    "close_approach_data": [
        {
            "close_approach_date": "2019-08-13",
            "close_approach_date_full": "2019-Aug-13 02:56",
            "epoch_date_close_approach": 1565664960000,
            "relative_velocity": {
                "kilometers_per_second": "10.2690422267",
                "kilometers_per_hour": "36968.552016016",
                "miles_per_hour": "22970.8205568406"
            },
            "miss_distance": {
                "astronomical": "0.085046041",
                "lunar": "33.082909949",
                "kilometers": "12722706.58553267",
                "miles": "7905523.288264046"
            },
            "orbiting_body": "Earth"
        }
    ],
    "orbital_data": {
        "orbit_id": "4",
        "orbit_determination_date": "2019-10-30 08:01:41",
        "first_observation_date": "2019-08-28",
        "last_observation_date": "2019-09-05",
        "data_arc_in_days": 8,
        "observations_used": 27,
        "orbit_uncertainty": "9",
        "minimum_orbit_intersection": ".00273537",
        "jupiter_tisserand_invariant": "4.154",
        "epoch_osculation": "2458725.5",
        "eccentricity": ".4907106227145603",
        "semi_major_axis": "1.63774926775543",
        "inclination": "1.92016870062165",
        "ascending_node_longitude": "211.4505779798137",
        "orbital_period": "765.5429260277367",
        "perihelion_distance": ".8340883047248476",
        "perihelion_argument": "56.53071967878365",
        "aphelion_distance": "2.441410230786012",
        "perihelion_time": "2458669.220252416884",
        "mean_anomaly": "26.46580412551246",
        "mean_motion": ".4702544922829797",
        "equinox": "J2000",
        "orbit_class": {
            "orbit_class_type": "APO",
            "orbit_class_description": "Near-Earth asteroid orbits which cross the Earth’s orbit similar to that of 1862 Apollo",
            "orbit_class_range": "a (semi-major axis) > 1.0 AU; q (perihelion) < 1.017 AU"
        }
    },
    "is_sentry_object": false
}